STARLINK-5993           
1 56449U 23064B   26068.63921583  .00000534  00000+0  52548-4 0  9991
2 56449  70.0005 144.7824 0003151 270.3368  89.7430 14.98327790155238
QPS-SAR-12 (KUSHINADA-I)
1 65116U 25169A   26068.45165888  .00007038  00000+0  57220-3 0  9995
2 65116  42.0102 204.8332 0007793 277.3009  82.6931 14.99881586 32436
